CTC1_L_00128001-01
1 75289U 25041TC  26037.47802083  .00000000  00000+0  00000-0 0  9992
2 75289  90.0000   0.0000 0000000   0.0000   0.0000 14.24551582    10
CTC1_L_00128001-02
1 75290U 25151T   26037.47802083  .00000000  00000+0  00000-0 0  9996
2 75290  90.0000   0.0000 0000000   0.0000  90.0000 14.24551582    11
CTC1_L_00128001-03
1 75291U 25626UD  26037.47802083  .00000000  00000+0  00000-0 0  9994
2 75291  90.0000   0.0000 0000000   0.0000 180.0000 14.24551582    12
CTC1_L_00128001-04
1 75292U 22369IG  26037.47802083  .00000000  00000+0  00000-0 0  9996
2 75292  90.0000   0.0000 0000000   0.0000 270.0000 14.24551582    13
CTC1_L_00128002-01
1 75293U 22327SL  26037.47802083  .00000000  00000+0  00000-0 0  9991
2 75293  90.0000  12.0000 0000000   0.0000  12.0000 14.24551582    11
CTC1_L_00128002-02
1 75294U 23815BL  26037.47802083  .00000000  00000+0  00000-0 0  9995
2 75294  90.0000  12.0000 0000000   0.0000 102.0000 14.24551582    12
CTC1_L_00128002-03
1 75295U 22885ZV  26037.47802083  .00000000  00000+0  00000-0 0  9992
2 75295  90.0000  12.0000 0000000   0.0000 192.0000 14.24551582    12
CTC1_L_00128002-04
1 75296U 23929AC  26037.47802083  .00000000  00000+0  00000-0 0  9993
2 75296  90.0000  12.0000 0000000   0.0000 282.0000 14.24551582    13
CTC1_L_00128003-01
1 75297U 23285NK  26037.47802083  .00000000  00000+0  00000-0 0  9999
2 75297  90.0000  24.0000 0000000   0.0000  24.0000 14.24551582    11
CTC1_L_00128003-02
1 75298U 24434W   26037.47802083  .00000000  00000+0  00000-0 0  9997
2 75298  90.0000  24.0000 0000000   0.0000 114.0000 14.24551582    12
CTC1_L_00128003-03
1 75299U 26940UN  26037.47802083  .00000000  00000+0  00000-0 0  9992
2 75299  90.0000  24.0000 0000000   0.0000 204.0000 14.24551582    13
CTC1_L_00128003-04
1 75300U 24021UJ  26037.47802083  .00000000  00000+0  00000-0 0  9993
2 75300  90.0000  24.0000 0000000   0.0000 294.0000 14.24551582    15
CTC1_L_00128004-01
1 75301U 26714VH  26037.47802083  .00000000  00000+0  00000-0 0  9995
2 75301  90.0000  36.0000 0000000   0.0000  36.0000 14.24551582    13
CTC1_L_00128004-02
1 75302U 22257ZS  26037.47802083  .00000000  00000+0  00000-0 0  9994
2 75302  90.0000  36.0000 0000000   0.0000 126.0000 14.24551582    14
CTC1_L_00128004-03
1 75303U 26504NS  26037.47802083  .00000000  00000+0  00000-0 0  9994
2 75303  90.0000  36.0000 0000000   0.0000 216.0000 14.24551582    15
CTC1_L_00128004-04
1 75304U 23751KU  26037.47802083  .00000000  00000+0  00000-0 0  9996
2 75304  90.0000  36.0000 0000000   0.0000 306.0000 14.24551582    16
CTC1_L_00128005-01
1 75305U 23192ST  26037.47802083  .00000000  00000+0  00000-0 0  9996
2 75305  90.0000  48.0000 0000000   0.0000  48.0000 14.24551582    13
CTC1_L_00128005-02
1 75306U 23716ZQ  26037.47802083  .00000000  00000+0  00000-0 0  9999
2 75306  90.0000  48.0000 0000000   0.0000 138.0000 14.24551582    14
CTC1_L_00128005-03
1 75307U 22909UP  26037.47802083  .00000000  00000+0  00000-0 0  9993
2 75307  90.0000  48.0000 0000000   0.0000 228.0000 14.24551582    15
CTC1_L_00128005-04
1 75308U 25310DR  26037.47802083  .00000000  00000+0  00000-0 0  9993
2 75308  90.0000  48.0000 0000000   0.0000 318.0000 14.24551582    16
CTC1_L_00128006-01
1 75309U 26858IW  26037.47802083  .00000000  00000+0  00000-0 0  9992
2 75309  90.0000  60.0000 0000000   0.0000  60.0000 14.24551582    15
CTC1_L_00128006-02
1 75310U 22931PN  26037.47802083  .00000000  00000+0  00000-0 0  9992
2 75310  90.0000  60.0000 0000000   0.0000 150.0000 14.24551582    17
CTC1_L_00128006-03
1 75311U 24521GF  26037.47802083  .00000000  00000+0  00000-0 0  9990
2 75311  90.0000  60.0000 0000000   0.0000 240.0000 14.24551582    18
CTC1_L_00128006-04
1 75312U 26183YX  26037.47802083  .00000000  00000+0  00000-0 0  9997
2 75312  90.0000  60.0000 0000000   0.0000 330.0000 14.24551582    19
CTC1_L_00128007-01
1 75313U 24944ZQ  26037.47802083  .00000000  00000+0  00000-0 0  9991
2 75313  90.0000  72.0000 0000000   0.0000  72.0000 14.24551582    16
CTC1_L_00128007-02
1 75314U 25323XE  26037.47802083  .00000000  00000+0  00000-0 0  9994
2 75314  90.0000  72.0000 0000000   0.0000 162.0000 14.24551582    17
CTC1_L_00128007-03
1 75315U 24880EJ  26037.47802083  .00000000  00000+0  00000-0 0  9992
2 75315  90.0000  72.0000 0000000   0.0000 252.0000 14.24551582    18
CTC1_L_00128007-04
1 75316U 25311ZM  26037.47802083  .00000000  00000+0  00000-0 0  9993
2 75316  90.0000  72.0000 0000000   0.0000 342.0000 14.24551582    19
CTC1_L_00128008-01
1 75317U 26980DU  26037.47802083  .00000000  00000+0  00000-0 0  9997
2 75317  90.0000  84.0000 0000000   0.0000  84.0000 14.24551582    16
CTC1_L_00128008-02
1 75318U 22705GO  26037.47802083  .00000000  00000+0  00000-0 0  9999
2 75318  90.0000  84.0000 0000000   0.0000 174.0000 14.24551582    17
CTC1_L_00128008-03
1 75319U 25016XH  26037.47802083  .00000000  00000+0  00000-0 0  9998
2 75319  90.0000  84.0000 0000000   0.0000 264.0000 14.24551582    18
CTC1_L_00128008-04
1 75320U 26564YX  26037.47802083  .00000000  00000+0  00000-0 0  9999
2 75320  90.0000  84.0000 0000000   0.0000 354.0000 14.24551582    10
CTC1_L_00128009-01
1 75321U 23864AO  26037.47802083  .00000000  00000+0  00000-0 0  9990
2 75321  90.0000  96.0000 0000000   0.0000  96.0000 14.24551582    17
CTC1_L_00128009-02
1 75322U 23335KU  26037.47802083  .00000000  00000+0  00000-0 0  9994
2 75322  90.0000  96.0000 0000000   0.0000 186.0000 14.24551582    18
CTC1_L_00128009-03
1 75323U 23242O   26037.47802083  .00000000  00000+0  00000-0 0  9992
2 75323  90.0000  96.0000 0000000   0.0000 276.0000 14.24551582    19
CTC1_L_00128009-04
1 75324U 26097ZE  26037.47802083  .00000000  00000+0  00000-0 0  9994
2 75324  90.0000  96.0000 0000000   0.0000   6.0000 14.24551582    11
CTC1_L_00128010-01
1 75325U 22796ZT  26037.47802083  .00000000  00000+0  00000-0 0  9997
2 75325  90.0000 108.0000 0000000   0.0000 108.0000 14.24551582    19
CTC1_L_00128010-02
1 75326U 24514DY  26037.47802083  .00000000  00000+0  00000-0 0  9998
2 75326  90.0000 108.0000 0000000   0.0000 198.0000 14.24551582    19
CTC1_L_00128010-03
1 75327U 23362QN  26037.47802083  .00000000  00000+0  00000-0 0  9999
2 75327  90.0000 108.0000 0000000   0.0000 288.0000 14.24551582    10
CTC1_L_00128010-04
1 75328U 25387VQ  26037.47802083  .00000000  00000+0  00000-0 0  9999
2 75328  90.0000 108.0000 0000000   0.0000  18.0000 14.24551582    12
CTC1_L_00128011-01
1 75329U 23056BP  26037.47802083  .00000000  00000+0  00000-0 0  9991
2 75329  90.0000 120.0000 0000000   0.0000 120.0000 14.24551582    11
CTC1_L_00128011-02
1 75330U 22651DK  26037.47802083  .00000000  00000+0  00000-0 0  9993
2 75330  90.0000 120.0000 0000000   0.0000 210.0000 14.24551582    13
CTC1_L_00128011-03
1 75331U 25300KA  26037.47802083  .00000000  00000+0  00000-0 0  9998
2 75331  90.0000 120.0000 0000000   0.0000 300.0000 14.24551582    14
CTC1_L_00128011-04
1 75332U 23882RY  26037.47802083  .00000000  00000+0  00000-0 0  9992
2 75332  90.0000 120.0000 0000000   0.0000  30.0000 14.24551582    15
CTC1_L_00128012-01
1 75333U 22784PO  26037.47802083  .00000000  00000+0  00000-0 0  9993
2 75333  90.0000 132.0000 0000000   0.0000 132.0000 14.24551582    12
CTC1_L_00128012-02
1 75334U 24703YZ  26037.47802083  .00000000  00000+0  00000-0 0  9997
2 75334  90.0000 132.0000 0000000   0.0000 222.0000 14.24551582    13
CTC1_L_00128012-03
1 75335U 23641WG  26037.47802083  .00000000  00000+0  00000-0 0  9998
2 75335  90.0000 132.0000 0000000   0.0000 312.0000 14.24551582    14
CTC1_L_00128012-04
1 75336U 23707CV  26037.47802083  .00000000  00000+0  00000-0 0  9992
2 75336  90.0000 132.0000 0000000   0.0000  42.0000 14.24551582    15
CTC1_L_00128013-01
1 75337U 25653GC  26037.47802083  .00000000  00000+0  00000-0 0  9995
2 75337  90.0000 144.0000 0000000   0.0000 144.0000 14.24551582    12
CTC1_L_00128013-02
1 75338U 23953SE  26037.47802083  .00000000  00000+0  00000-0 0  9997
2 75338  90.0000 144.0000 0000000   0.0000 234.0000 14.24551582    13
CTC1_L_00128013-03
1 75339U 22411LO  26037.47802083  .00000000  00000+0  00000-0 0  9996
2 75339  90.0000 144.0000 0000000   0.0000 324.0000 14.24551582    14
CTC1_L_00128013-04
1 75340U 25369LF  26037.47802083  .00000000  00000+0  00000-0 0  9993
2 75340  90.0000 144.0000 0000000   0.0000  54.0000 14.24551582    16
CTC1_L_00128014-01
1 75341U 26238UO  26037.47802083  .00000000  00000+0  00000-0 0  9990
2 75341  90.0000 156.0000 0000000   0.0000 156.0000 14.24551582    13
CTC1_L_00128014-02
1 75342U 25621EX  26037.47802083  .00000000  00000+0  00000-0 0  9996
2 75342  90.0000 156.0000 0000000   0.0000 246.0000 14.24551582    14
CTC1_L_00128014-03
1 75343U 24986AE  26037.47802083  .00000000  00000+0  00000-0 0  9990
2 75343  90.0000 156.0000 0000000   0.0000 336.0000 14.24551582    15
CTC1_L_00128014-04
1 75344U 24902UN  26037.47802083  .00000000  00000+0  00000-0 0  9999
2 75344  90.0000 156.0000 0000000   0.0000  66.0000 14.24551582    16
CTC1_L_00128015-01
1 75345U 22706WE  26037.47802083  .00000000  00000+0  00000-0 0  9990
2 75345  90.0000 168.0000 0000000   0.0000 168.0000 14.24551582    13
CTC1_L_00128015-02
1 75346U 22802MU  26037.47802083  .00000000  00000+0  00000-0 0  9998
2 75346  90.0000 168.0000 0000000   0.0000 258.0000 14.24551582    14
CTC1_L_00128015-03
1 75347U 24656FG  26037.47802083  .00000000  00000+0  00000-0 0  9998
2 75347  90.0000 168.0000 0000000   0.0000 348.0000 14.24551582    15
CTC1_L_00128015-04
1 75348U 23426UU  26037.47802083  .00000000  00000+0  00000-0 0  9993
2 75348  90.0000 168.0000 0000000   0.0000  78.0000 14.24551582    16
CTC1_L_00128016-01
1 75349U 24525FT  26037.47802083  .00000000  00000+0  00000-0 0  9995
2 75349  90.0000 180.0000 0000000   0.0000 180.0000 14.24551582    15
CTC1_L_00128016-02
1 75350U 24603TD  26037.47802083  .00000000  00000+0  00000-0 0  9994
2 75350  90.0000 180.0000 0000000   0.0000 270.0000 14.24551582    17
